start=new Date('2022-05-20T00:00:00.000Z').valueOf();
sats=[{"EPOCH":"2022-05-19T17:56:52.818720","BSTAR":"-0.00008022800000","ARG_OF_PERICENTER":"66.6759","OBJECT_NAME":"STARLINK-2453","TIME_SYSTEM":"UTC","COUNTRY_CODE":"US","CENTER_NAME":"EARTH","OBJECT_TYPE":"PAYLOAD","MEAN_MOTION_DDOT":"0.0000000000000","NORAD_CAT_ID":"47845","PERIAPSIS":"545.811","LAUNCH_DATE":"2021-03-11","APOAPSIS":"548.683","MEAN_MOTION_DOT":"-0.00001476","RA_OF_ASC_NODE":"11.3237","MEAN_ANOMALY":"293.4448","REF_FRAME":"TEME","CLASSIFICATION_TYPE":"U","TLE_LINE1":"1 47845U 21018BL  22139.74783355 -.00001476  00000-0 -80228-4 0  9993","DECAY_DATE":null,"FILE":"3453812","RCS_SIZE":"LARGE","MEAN_ELEMENT_THEORY":"SGP4","ELEMENT_SET_NO":"999","SITE":"AFETR","MEAN_MOTION":"15.06389100","REV_AT_EPOCH":"6710","ECCENTRICITY":"0.00020730","OBJECT_ID":"2021-018BL","SEMIMAJOR_AXIS":"6925.382","TLE_LINE2":"2 47845  53.0546  11.3237 0002073  66.6759 293.4448 15.06389100 67102","PERIOD":"95.593","INCLINATION":"53.0546","GP_ID":"203987082","EPHEMERIS_TYPE":"0"},{"MEAN_MOTION_DDOT":"0.0000000000000","NORAD_CAT_ID":"47846","PERIAPSIS":"545.860","LAUNCH_DATE":"2021-03-11","APOAPSIS":"548.598","MEAN_MOTION_DOT":"0.00000576","RA_OF_ASC_NODE":"10.4432","MEAN_ANOMALY":"280.2964","REF_FRAME":"TEME","EPOCH":"2022-05-19T22:38:11.422464","BSTAR":"0.00005760600000","ARG_OF_PERICENTER":"79.8248","OBJECT_NAME":"STARLINK-2456","TIME_SYSTEM":"UTC","COUNTRY_CODE":"US","CENTER_NAME":"EARTH","OBJECT_TYPE":"PAYLOAD","ECCENTRICITY":"0.00019770","SEMIMAJOR_AXIS":"6925.364","OBJECT_ID":"2021-018BM","TLE_LINE2":"2 47846  53.0574  10.4432 0001977  79.8248 280.2964 15.06394915 67187","PERIOD":"95.592","INCLINATION":"53.0574","GP_ID":"203987331","EPHEMERIS_TYPE":"0","CLASSIFICATION_TYPE":"U","TLE_LINE1":"1 47846U 21018BM  22139.94318776  .00000576  00000-0  57606-4 0  9999","DECAY_DATE":null,"FILE":"3453812","RCS_SIZE":"LARGE","MEAN_ELEMENT_THEORY":"SGP4","SITE":"AFETR","MEAN_MOTION":"15.06394915","ELEMENT_SET_NO":"999","REV_AT_EPOCH":"6718"},{"APOAPSIS":"548.289","MEAN_MOTION_DOT":"0.00001548","NORAD_CAT_ID":"47860","MEAN_MOTION_DDOT":"0.0000000000000","LAUNCH_DATE":"2021-03-14","PERIAPSIS":"546.152","RA_OF_ASC_NODE":"43.9898","MEAN_ANOMALY":"309.7482","REF_FRAME":"TEME","TIME_SYSTEM":"UTC","EPOCH":"2022-05-19T03:38:20.712768","BSTAR":"0.00012280000000","ARG_OF_PERICENTER":"50.3643","OBJECT_NAME":"STARLINK-2258","CENTER_NAME":"EARTH","OBJECT_TYPE":"PAYLOAD","COUNTRY_CODE":"US","TLE_LINE2":"2 47860  53.0550  43.9898 0001543  50.3643 309.7482 15.06397607 65974","ECCENTRICITY":"0.00015430","SEMIMAJOR_AXIS":"6925.356","OBJECT_ID":"2021-021A","GP_ID":"203961339","EPHEMERIS_TYPE":"0","PERIOD":"95.592","INCLINATION":"53.0550","CLASSIFICATION_TYPE":"U","TLE_LINE1":"1 47860U 21021A   22139.15162862  .00001548  00000-0  12280-3 0  9993","SITE":"AFETR","ELEMENT_SET_NO":"999","MEAN_MOTION":"15.06397607","REV_AT_EPOCH":"6597","DECAY_DATE":null,"RCS_SIZE":"LARGE","FILE":"3453612","MEAN_ELEMENT_THEORY":"SGP4"},{"LAUNCH_DATE":"2021-03-14","PERIAPSIS":"546.087","MEAN_MOTION_DDOT":"0.0000000000000","NORAD_CAT_ID":"47861","MEAN_MOTION_DOT":"0.00001414","APOAPSIS":"548.342","REF_FRAME":"TEME","MEAN_ANOMALY":"301.8421","RA_OF_ASC_NODE":"29.8023","ARG_OF_PERICENTER":"58.2726","OBJECT_NAME":"STARLINK-2280","BSTAR":"0.00011383000000","EPOCH":"2022-05-18T23:17:35.963232","TIME_SYSTEM":"UTC","COUNTRY_CODE":"US","CENTER_NAME":"EARTH","OBJECT_TYPE":"PAYLOAD","OBJECT_ID":"2021-021B","SEMIMAJOR_AXIS":"6925.349","ECCENTRICITY":"0.00016280","TLE_LINE2":"2 47861  53.0548  29.8023 0001628  58.2726 301.8421 15.06399709 66655","PERIOD":"95.592","INCLINATION":"53.0548","EPHEMERIS_TYPE":"0","GP_ID":"203944204","TLE_LINE1":"1 47861U 21021B   22138.97055513  .00001414  00000-0  11383-3 0  9992","CLASSIFICATION_TYPE":"U","RCS_SIZE":"LARGE","FILE":"3453038","MEAN_ELEMENT_THEORY":"SGP4","DECAY_DATE":null,"REV_AT_EPOCH":"6665","SITE":"AFETR","MEAN_MOTION":"15.06399709","ELEMENT_SET_NO":"999"},{"RA_OF_ASC_NODE":"21.9211","MEAN_ANOMALY":"292.0528","REF_FRAME":"TEME","PERIAPSIS":"546.196","LAUNCH_DATE":"2021-03-14","MEAN_MOTION_DDOT":"0.0000000000000","NORAD_CAT_ID":"47862","APOAPSIS":"548.249","MEAN_MOTION_DOT":"0.00000373","COUNTRY_CODE":"US","OBJECT_TYPE":"PAYLOAD","CENTER_NAME":"EARTH","BSTAR":"0.00004394700000","OBJECT_NAME":"STARLINK-2291","ARG_OF_PERICENTER":"68.0618","EPOCH":"2022-05-19T14:44:28.373856","TIME_SYSTEM":"UTC","PERIOD":"95.592","INCLINATION":"53.0560","GP_ID":"203986834","EPHEMERIS_TYPE":"0","SEMIMAJOR_AXIS":"6925.357","OBJECT_ID":"2021-021C","ECCENTRICITY":"0.00014820","TLE_LINE2":"2 47862  53.0560  21.9211 0001482  68.0618 292.0528 15.06397182 66819","FILE":"3453812","RCS_SIZE":"LARGE","MEAN_ELEMENT_THEORY":"SGP4","DECAY_DATE":null,"REV_AT_EPOCH":"6681","SITE":"AFETR","MEAN_MOTION":"15.06397182","ELEMENT_SET_NO":"999","TLE_LINE1":"1 47862U 21021C   22139.61421729  .00000373  00000-0  43947-4 0  9996","CLASSIFICATION_TYPE":"U"},{"TLE_LINE2":"2 47863  53.0545  31.8124 0001778  61.9826 298.1343 15.06394937 66689","SEMIMAJOR_AXIS":"6925.364","OBJECT_ID":"2021-021D","ECCENTRICITY":"0.00017780","GP_ID":"203988084","EPHEMERIS_TYPE":"0","INCLINATION":"53.0545","PERIOD":"95.592","TLE_LINE1":"1 47863U 21021D   22139.63909502 -.00000059  00000-0  14945-4 0  9997","CLASSIFICATION_TYPE":"U","REV_AT_EPOCH":"6668","ELEMENT_SET_NO":"999","SITE":"AFETR","MEAN_MOTION":"15.06394937","MEAN_ELEMENT_THEORY":"SGP4","FILE":"3453812","RCS_SIZE":"LARGE","DECAY_DATE":null,"APOAPSIS":"548.460","MEAN_MOTION_DOT":"-0.00000059","PERIAPSIS":"545.998","LAUNCH_DATE":"2021-03-14","MEAN_MOTION_DDOT":"0.0000000000000","NORAD_CAT_ID":"47863","MEAN_ANOMALY":"298.1343","RA_OF_ASC_NODE":"31.8124","REF_FRAME":"TEME","TIME_SYSTEM":"UTC","BSTAR":"0.00001494500000","ARG_OF_PERICENTER":"61.9826","OBJECT_NAME":"STARLINK-2293","EPOCH":"2022-05-19T15:20:17.809728","OBJECT_TYPE":"PAYLOAD","CENTER_NAME":"EARTH","COUNTRY_CODE":"US"},{"MEAN_ANOMALY":"304.4470","RA_OF_ASC_NODE":"22.8202","REF_FRAME":"TEME","MEAN_MOTION_DDOT":"0.0000000000000","NORAD_CAT_ID":"47864","PERIAPSIS":"546.033","LAUNCH_DATE":"2021-03-14","APOAPSIS":"548.408","MEAN_MOTION_DOT":"0.00000243","COUNTRY_CODE":"US","OBJECT_TYPE":"PAYLOAD","CENTER_NAME":"EARTH","EPOCH":"2022-05-19T09:56:29.431392","BSTAR":"0.00003524600000","ARG_OF_PERICENTER":"55.6681","OBJECT_NAME":"STARLINK-2304","TIME_SYSTEM":"UTC","INCLINATION":"53.0553","PERIOD":"95.592","GP_ID":"203960888","EPHEMERIS_TYPE":"0","ECCENTRICITY":"0.00017150","OBJECT_ID":"2021-021E","SEMIMAJOR_AXIS":"6925.356","TLE_LINE2":"2 47864  53.0553  22.8202 0001715  55.6681 304.4470 15.06397734 66293","DECAY_DATE":null,"RCS_SIZE":"LARGE","FILE":"3453613","MEAN_ELEMENT_THEORY":"SGP4","MEAN_MOTION":"15.06397734","SITE":"AFETR","ELEMENT_SET_NO":"999","REV_AT_EPOCH":"6629","CLASSIFICATION_TYPE":"U","TLE_LINE1":"1 47864U 21021E   22139.41422953  .00000243  00000-0  35246-4 0  9995"},{"TIME_SYSTEM":"UTC","ARG_OF_PERICENTER":"60.8516","OBJECT_NAME":"STARLINK-2310","BSTAR":"0.00006876800000","EPOCH":"2022-05-19T09:56:32.342208","OBJECT_TYPE":"PAYLOAD","CENTER_NAME":"EARTH","COUNTRY_CODE":"US","MEAN_MOTION_DOT":"0.00000743","APOAPSIS":"548.337","PERIAPSIS":"546.167","LAUNCH_DATE":"2021-03-14","MEAN_MOTION_DDOT":"0.0000000000000","NORAD_CAT_ID":"47865","REF_FRAME":"TEME","MEAN_ANOMALY":"299.2630","RA_OF_ASC_NODE":"32.8004","TLE_LINE1":"1 47865U 21021F   22139.41426322  .00000743  00000-0  68768-4 0  9990","CLASSIFICATION_TYPE":"U","REV_AT_EPOCH":"6617","MEAN_MOTION":"15.06387432","SITE":"AFETR","ELEMENT_SET_NO":"999","FILE":"3453597","RCS_SIZE":"LARGE","MEAN_ELEMENT_THEORY":"SGP4","DECAY_DATE":null,"TLE_LINE2":"2 47865  53.0571  32.8004 0001567  60.8516 299.2630 15.06387432 66175","SEMIMAJOR_AXIS":"6925.387","OBJECT_ID":"2021-021F","ECCENTRICITY":"0.00015670","EPHEMERIS_TYPE":"0","GP_ID":"203960909","INCLINATION":"53.0571","PERIOD":"95.593"},{"MEAN_MOTION_DDOT":"0.0000000000000","NORAD_CAT_ID":"47866","PERIAPSIS":"545.904","LAUNCH_DATE":"2021-03-14","APOAPSIS":"548.558","MEAN_MOTION_DOT":"0.00000566","RA_OF_ASC_NODE":"32.8071","MEAN_ANOMALY":"303.0711","REF_FRAME":"TEME","EPOCH":"2022-05-19T10:01:50.301984","BSTAR":"0.00005693100000","OBJECT_NAME":"STARLINK-2320","ARG_OF_PERICENTER":"57.0462","TIME_SYSTEM":"UTC","COUNTRY_CODE":"US","OBJECT_TYPE":"PAYLOAD","CENTER_NAME":"EARTH","ECCENTRICITY":"0.00019160","SEMIMAJOR_AXIS":"6925.366","OBJECT_ID":"2021-021G","TLE_LINE2":"2 47866  53.0549  32.8071 0001916  57.0462 303.0711 15.06394336 66176","PERIOD":"95.592","INCLINATION":"53.0549","GP_ID":"203961405","EPHEMERIS_TYPE":"0","CLASSIFICATION_TYPE":"U","TLE_LINE1":"1 47866U 21021G   22139.41794331  .00000566  00000-0  56931-4 0  9991","DECAY_DATE":null,"MEAN_ELEMENT_THEORY":"SGP4","FILE":"3453597","RCS_SIZE":"LARGE","SITE":"AFETR","ELEMENT_SET_NO":"999","MEAN_MOTION":"15.06394336","REV_AT_EPOCH":"6617"},{"REV_AT_EPOCH":"6631","SITE":"AFETR","ELEMENT_SET_NO":"999","MEAN_MOTION":"15.06392877","MEAN_ELEMENT_THEORY":"SGP4","FILE":"3453274","RCS_SIZE":"LARGE","DECAY_DATE":null,"TLE_LINE1":"1 47867U 21021H   22139.41149035  .00000551  00000-0  55893-4 0  9997","CLASSIFICATION_TYPE":"U","GP_ID":"203953148","EPHEMERIS_TYPE":"0","PERIOD":"95.593","INCLINATION":"53.0579","TLE_LINE2":"2 47867  53.0579  22.8165 0001689  64.1388 295.9775 15.06392877 66319","SEMIMAJOR_AXIS":"6925.370","OBJECT_ID":"2021-021H","ECCENTRICITY":"0.00016890","OBJECT_TYPE":"PAYLOAD","CENTER_NAME":"EARTH","COUNTRY_CODE":"US","TIME_SYSTEM":"UTC","BSTAR":"0.00005589300000","ARG_OF_PERICENTER":"64.1388","OBJECT_NAME":"STARLINK-2321","EPOCH":"2022-05-19T09:52:32.766240","MEAN_ANOMALY":"295.9775","RA_OF_ASC_NODE":"22.8165","REF_FRAME":"TEME","APOAPSIS":"548.405","MEAN_MOTION_DOT":"0.00000551","LAUNCH_DATE":"2021-03-14","PERIAPSIS":"546.066","MEAN_MOTION_DDOT":"0.0000000000000","NORAD_CAT_ID":"47867"}];
